{
  "business": [
    {
      "name": "PG Cupcakes",
      "address": "1800 N Sweet Ln",
      "city": "Pleasant Grove",
      "state": "UT",
      "zip": "84062",
      "phone": "888-666-5555",
      "website": "pgcupcakes.com",
      "imageurl": "https://cdn4.iconfinder.com/data/icons/cookie-flat-color-2/512/3-512.png"
    },
    {
      "name": "Carters Car Repair",
      "address": "33 S Engine Rd",
      "city": "Pleasant Grove",
      "state": "UT",
      "zip": "84062",
      "phone": "888-666-5555",
      "website": "carter4u.com",
      "imageurl": "https://cdn2.iconfinder.com/data/icons/ios-7-icons/50/tire-256.png"
    },
    {
      "name": "Calm Salon",
      "address": "1566 E Hair Ln",
      "city": "Pleasant Grove",
      "state": "UT",
      "zip": "84062",
      "phone": "888-666-5555",
      "website": "saloncalm.com",
      "imageurl": "https://cdn-icons-png.flaticon.com/512/1057/1057317.png"
    },
    {
      "name": "Cravings Resturant",
      "address": "1500 N Food Ln",
      "city": "Pleasant Grove",
      "state": "UT",
      "zip": "84062",
      "phone": "888-666-5555",
      "website": "eatcravings.com",
      "imageurl": "https://cdn-icons-png.flaticon.com/512/857/857718.png"
    },
    {
      "name": "At Home Insurance",
      "address": "1432 Peace Dr",
      "city": "Pleasant Grove",
      "state": "UT",
      "zip": "84062",
      "phone": "888-666-5555",
      "website": "safeathome.com",
      "imageurl": "https://cdn-icons-png.flaticon.com/512/609/609803.png"
    },
    {
      "name": "CleanIt Cleaners",
      "address": "1277 Sparkle Rd",
      "city": "Pleasant Grove",
      "state": "UT",
      "zip": "84062",
      "phone": "888-666-5555",
      "website": "wemeanclean.com",
      "imageurl": "https://cdn-icons-png.flaticon.com/512/995/995016.png"
    },
    {
      "name": "Nails by Fam",
      "address": "56 N Fahsion St",
      "city": "Pleasant Grove",
      "state": "UT",
      "zip": "84062",
      "phone": "888-666-5555",
      "website": "nailsbyfam.com",
      "imageurl": "https://cdn3.iconfinder.com/data/icons/mothers-day-20/64/26-cosmetic-makeup-facial-face-powder-conmetics-make_up-feminine-beauty-woman-256.png"
    },
    {
      "name": "Mountainland Bicycle",
      "address": "25 S Active Lane",
      "city": "Pleasant Grove",
      "state": "UT",
      "zip": "84062",
      "phone": "888-666-5555",
      "website": "mountainlandbs.com",
      "imageurl": "https://cdn2.iconfinder.com/data/icons/circle-icons-1/64/bike-256.png"
    },
    {
      "name": "PG Auto Sales",
      "address": "1800 N Drive Dr",
      "city": "Pleasant Grove",
      "state": "UT",
      "zip": "84062",
      "phone": "888-666-5555",
      "website": "buycars4fun.com",
      "imageurl": "https://cdn-icons-png.flaticon.com/512/3774/3774278.png"
    },
    {
      "name": "PG Pie",
      "address": "1200 N Sweet Ln",
      "city": "Pleasant Grove",
      "state": "UT",
      "zip": "84062",
      "phone": "888-666-5555",
      "website": "pieordie.com",
      "imageurl": "https://cdn-icons-png.flaticon.com/512/527/527755.png"
    },
    {
      "name": "Fab Graphic Design",
      "address": "1340 N Technology Cir",
      "city": "Pleasant Grove",
      "state": "UT",
      "zip": "84062",
      "phone": "888-666-5555",
      "website": "fgdesign.com",
      "imageurl": "https://cdn-icons-png.flaticon.com/512/2779/2779775.png"
    },
    {
      "name": "Website World",
      "address": "1450 N Technolofy Cir",
      "city": "Pleasant Grove",
      "state": "UT",
      "zip": "84062",
      "phone": "888-666-5555",
      "website": "worldofweb.com",
      "imageurl": "https://cdn3.iconfinder.com/data/icons/colorful-guache-social-media-logos-1/159/social-media_web-256.png"
    }
  ]
}
